[{"OBJECT_NAME":"STARLINK-5120","OBJECT_ID":"2022-125U","EPOCH":"2026-03-09T15:13:15.661920","MEAN_MOTION":15.08821028,"ECCENTRICITY":0.0001318,"INCLINATION":53.2185,"RA_OF_ASC_NODE":214.4071,"ARG_OF_PERICENTER":99.9911,"MEAN_ANOMALY":260.123,"EPHEMERIS_TYPE":0,"CLASSIFICATION_TYPE":"U","NORAD_CAT_ID":53982,"ELEMENT_SET_NO":999,"REV_AT_EPOCH":18944,"BSTAR":-0.00012468,"MEAN_MOTION_DOT":-2.27e-5,"MEAN_MOTION_DDOT":0},{"OBJECT_NAME":"COSMOS 374 DEB","OBJECT_ID":"1970-089W","EPOCH":"2026-03-09T16:20:12.219936","MEAN_MOTION":13.5280289,"ECCENTRICITY":0.07081767,"INCLINATION":62.9255,"RA_OF_ASC_NODE":204.1769,"ARG_OF_PERICENTER":160.6646,"MEAN_ANOMALY":202.2778,"EPHEMERIS_TYPE":0,"CLASSIFICATION_TYPE":"U","NORAD_CAT_ID":5020,"ELEMENT_SET_NO":999,"REV_AT_EPOCH":66527,"BSTAR":0.0014422969,"MEAN_MOTION_DOT":4.854e-5,"MEAN_MOTION_DDOT":0}]
